#dP2018  9 10  0  0  0.00000000      96 __u+U ITR00 FIT  IAC
## 2018  86400.00000000   900.00000000 58371 0.0000000000000
+   87   C01C02C03C04C05C06C07C08C09C10C11C12C13C14E01E02E03
+        E04E05E07E08E09E11E12E14E18E19E24E26E30G01G02G03G05
+        G06G07G08G09G10G11G12G13G14G15G16G17G18G19G20G21G22
+        G23G24G25G26G27G28G29G30G31G32J01J02J03R01R02R03R04
+        R05R07R08R09R10R11R13R14R15R16R17R18R19R20R21R22R23
+        R24R26  0  0  0  0  0  0  0  0  0  0  0  0  0  0  0
++        12 11  0 12 12  8  9  8  8  8  8  8  8  8  6  6  6
++         7  6  6  6  7  6  7  6  6  6  7  7  6  3  3  3  3
++         3  3  3  3  3  3  3  3  3  3  3  3  3  3  3  3  3
++         3  3  3  3  3  3  3  3  3  3 10 10 11  6  5  5  5
++         5  5  5  5  5  5  5  6  6  6  5  6  6  5  5  5  5
++         6  8  0  0  0  0  0  0  0  0  0  0  0  0  0  0  0
%c M  cc GPS ccc cccc cccc cccc cccc ccccc ccccc ccccc ccccc
%c cc cc ccc ccc cccc cccc cccc cccc ccccc ccccc ccccc ccccc
%f  0.0000000  0.000000000  0.00000000000  0.000000000000000
%f  0.0000000  0.000000000  0.00000000000  0.000000000000000
%i    0    0    0    0      0      0      0      0         0
%i    0    0    0    0      0      0      0      0         0
/* INFORMATION & ANALYSIS CENTER (IAC) OF MCC   (RAPID DATA)
/* S/V CLOCKS ARE ALIGNED TO GPS & GLONASS TIME RESPECTIVELY
/* USING THE BROADCAST EPHEMERIS                            
/* PCV:IGS14_2000 OL/AL:FES2004  NONE     YN ORB:CoN CLK:CoN
*  2018 09 10 20 30  0.00000000
PC01 -32285.429264  27101.032511    993.023852    -68.316955
PC02   4401.463213  41922.870233  -1308.460996     54.605497
PC03      0.000000      0.000000      0.000000 999999.999999
PC04 -39625.512455  14450.458919    452.806492   -339.423553
PC05  21872.389317  36018.548153  -1090.968269   -439.511589
PC06  -7554.468873  33233.486293 -24309.104297    287.270820
PC07 -16172.214352  22316.460464  31952.433773    -15.695185
PC08 -24150.143046  34079.414037  -6662.324212    520.507386
PC09   2312.601550  40092.582277 -12133.686288    102.847044
PC10  -1299.456458  25743.293991  33524.058708    -62.415397
PC11  14605.379044   5105.320648 -23175.039883   -674.616031
PC12   5218.424558  23260.786897 -14534.938781    602.266821
PC13 -12499.244752  35276.692585 -19672.418705   -271.113194
PC14  23490.935355  12434.103079   8480.664642    371.057550
PE01  14716.590926 -13638.650370 -21760.218816   -432.023163
PE02 -14656.532594  13662.376486  21792.275625     26.945851
PE03  -5658.396902  20628.907887 -20462.712698    -75.647285
PE04  -9806.824799 -27377.899574   5521.752726   -114.641203
PE05 -17906.643324   1739.251901 -23501.283513    196.112694
PE07  19639.445765  18096.570077  12788.239129    -35.991089
PE08  10121.826339  27273.372441  -5502.878139   6505.434139
PE09 -19716.843336 -17963.444384 -12809.455990   6680.460280
PE11 -14592.661590  -7725.038220  24556.901001   4835.019406
PE12    735.553196 -23699.797146  17722.385211   5024.485062
PE14  15868.117264  18194.114844 -18859.831268   6521.596761
PE18  -6311.053146 -24488.901231   7599.390192   5916.404925
PE19   6970.937794 -19147.929130  21475.802651    -12.372661
PE24 -25735.416712  -8846.378925 -11654.928490   6500.071339
PE26  21073.355054 -12123.113369 -16881.021109   5492.400463
PE30   7829.154974  15948.127974  23674.163604   5523.718110
PG01  -7870.135327  19148.628152 -16629.420204    -86.583339
PG02  21144.828643 -15800.476316   -832.830325      2.066977
PG03   2952.246849  17009.398167 -20235.046673    134.440666
PG05  17577.756218  -6828.742741  18672.322046     -2.123258
PG06  21752.944697  -2703.285179 -14985.875775    365.280293
PG07   8116.006752  13096.011632  21862.595364    126.415098
PG08  -6697.157783  22218.622161  12820.442237   -114.694236
PG09   7433.750609  24470.033392   7117.462767    507.158294
PG10 -24342.366422 -10827.457438   -774.467692    182.684772
PG11  -7135.043377  24538.124492  -8158.344370   -718.904545
PG12   3154.876357 -14893.013554 -21976.884190    307.862633
PG13  12448.559036 -15796.215936  17231.617848    -89.412195
PG14 -15067.963494   -311.168425 -21568.075646    -97.349913
PG15   2410.092205 -24680.534193   8731.673635   -346.242541
PG16 -19035.025209   2978.017490  18308.452507      9.612464
PG17  13427.570192  11234.638719 -19619.796700    -57.308692
PG18 -15087.734781  19868.739638  -9347.752770     55.790322
PG19  14915.883879   -352.797216 -22272.613726   -403.882217
PG20 -20655.655501 -14117.053330   8945.327739    515.597691
PG21 -12016.085309 -10735.385842  21912.162602   -339.043635
PG22  -5700.835550  14790.599180 -21077.581588   -515.405473
PG23   1369.813737  26221.055619  -1675.808064   -211.121538
PG24  11078.618627 -20289.691955 -12926.581911    -55.207829
PG25 -11803.489391 -17787.875453 -16131.396588   -645.049391
PG26 -24318.599309  -2758.422544  10484.114250    -24.310175
PG27 -12261.510156  12587.381169  19748.542368    346.195693
PG28  22165.049066  14510.036798   2020.752991    743.658837
PG29  -4833.643196 -25293.116526   6478.844672    378.993350
PG30  17569.604459   5501.981233  19222.413657     25.818200
PG31 -23003.758187   4155.835948 -12969.412401     94.480886
PG32 -14866.644735  -9588.971969 -19796.971513   -427.452962
PJ01 -19844.195611  21740.933898 -25569.669453   -110.097053
PJ02 -31775.223344  25223.468799  16337.470980     -2.793837
PJ03 -26327.831012  26026.278037  25190.317935      2.510418
PR01  17786.367857  17264.049700   6059.908342     31.808230
PR02  14098.854295   1713.663414  21213.254026    329.036052
PR03   2222.295524 -13693.028025  21454.574117    142.905188
PR04 -11328.779931 -21102.614588   8813.229674    275.713750
PR05 -17834.077542 -16319.363898  -8163.566661     10.335505
PR07  -1886.617749  13952.262536 -21228.576438    -46.806049
PR08  10903.252751  21051.988297  -9357.449084     21.357393
PR09 -24688.855214   5115.861836   3628.686751     27.723129
PR10 -14560.622883  10357.389601  18148.722386     31.432672
PR11   4942.990227  10358.292977  22804.991569    -40.459137
PR13  24766.730234  -5269.664228  -3155.614251    -14.545650
PR14  14661.016004 -10619.949101 -17961.975251     30.890385
PR15    -39.963718 -10757.537075 -23111.043505    -16.105855
PR16 -20471.368078  -3954.399687 -14783.913409    101.371601
PR17  11349.958645 -22353.868491  -4582.535859    163.176284
PR18   3010.490282 -22223.072890  12212.301187     25.133343
PR19  -6839.955451  -9826.414538  22516.590480    -59.249604
PR20 -13607.087470   9557.725091  19328.290018   -351.791254
PR21 -11187.727011  22562.668130   4154.628064     -2.730102
PR22  -1727.717747  21109.015906 -14127.136457    -61.845317
PR23   9117.775423   5494.600997 -23193.493836    177.436288
PR24  13599.679770 -10923.920497 -18644.421495   -171.215035
PR26 -13301.850423   8597.881534  20011.751948     46.446033
EOF
